CCSDS_OMM_VERS = 2.0
CREATION_DATE  = 
ORIGINATOR     = 

OBJECT_NAME    = SL-3 R/B
OBJECT_ID      = 1982-079B
CENTER_NAME    = EARTH
REF_FRAME      = TEME
TIME_SYSTEM    = UTC
MEAN_ELEMENT_THEORY = SGP/SGP4

EPOCH          = 2025-12-03T17:58:01.564608
MEAN_MOTION    = 15.23421485
ECCENTRICITY   = .0026772
INCLINATION    = 81.1457
RA_OF_ASC_NODE = 306.2583
ARG_OF_PERICENTER = 127.7343
MEAN_ANOMALY   = 232.6322

EPHEMERIS_TYPE = 0
CLASSIFICATION_TYPE = U
NORAD_CAT_ID   = 13403
ELEMENT_SET_NO = 999
REV_AT_EPOCH   = 36308
BSTAR          = .35564E-3
MEAN_MOTION_DOT = .8579E-4
MEAN_MOTION_DDOT = 0

CCSDS_OMM_VERS = 2.0
CREATION_DATE  = 
ORIGINATOR     = 

OBJECT_NAME    = SL-14 R/B
OBJECT_ID      = 1982-092B
CENTER_NAME    = EARTH
REF_FRAME      = TEME
TIME_SYSTEM    = UTC
MEAN_ELEMENT_THEORY = SGP/SGP4

EPOCH          = 2025-12-03T19:05:59.722368
MEAN_MOTION    = 14.86540752
ECCENTRICITY   = .0018843
INCLINATION    = 82.5687
RA_OF_ASC_NODE = 231.0755
ARG_OF_PERICENTER = 258.9575
MEAN_ANOMALY   = 164.4617

EPHEMERIS_TYPE = 0
CLASSIFICATION_TYPE = U
NORAD_CAT_ID   = 13553
ELEMENT_SET_NO = 999
REV_AT_EPOCH   = 31468
BSTAR          = .88809E-4
MEAN_MOTION_DOT = .813E-5
MEAN_MOTION_DDOT = 0

CCSDS_OMM_VERS = 2.0
CREATION_DATE  = 
ORIGINATOR     = 

OBJECT_NAME    = SL-3 R/B
OBJECT_ID      = 1983-010B
CENTER_NAME    = EARTH
REF_FRAME      = TEME
TIME_SYSTEM    = UTC
MEAN_ELEMENT_THEORY = SGP/SGP4

EPOCH          = 2025-12-03T19:47:12.353856
MEAN_MOTION    = 15.43086591
ECCENTRICITY   = .0017584
INCLINATION    = 81.1027
RA_OF_ASC_NODE = 119.4977
ARG_OF_PERICENTER = 21.9968
MEAN_ANOMALY   = 338.2026

EPHEMERIS_TYPE = 0
CLASSIFICATION_TYPE = U
NORAD_CAT_ID   = 13819
ELEMENT_SET_NO = 999
REV_AT_EPOCH   = 34314
BSTAR          = .45341E-3
MEAN_MOTION_DOT = .20203E-3
MEAN_MOTION_DDOT = 0

CCSDS_OMM_VERS = 2.0
CREATION_DATE  = 
ORIGINATOR     = 

OBJECT_NAME    = SL-3 R/B
OBJECT_ID      = 1983-075B
CENTER_NAME    = EARTH
REF_FRAME      = TEME
TIME_SYSTEM    = UTC
MEAN_ELEMENT_THEORY = SGP/SGP4

EPOCH          = 2025-12-03T17:33:59.175360
MEAN_MOTION    = 15.35850124
ECCENTRICITY   = .0021735
INCLINATION    = 97.6096
RA_OF_ASC_NODE = 333.9153
ARG_OF_PERICENTER = 208.3918
MEAN_ANOMALY   = 151.6142

EPHEMERIS_TYPE = 0
CLASSIFICATION_TYPE = U
NORAD_CAT_ID   = 14208
ELEMENT_SET_NO = 999
REV_AT_EPOCH   = 31541
BSTAR          = .43665E-3
MEAN_MOTION_DOT = .15277E-3
MEAN_MOTION_DDOT = 0

CCSDS_OMM_VERS = 2.0
CREATION_DATE  = 
ORIGINATOR     = 

OBJECT_NAME    = COSMOS 1536
OBJECT_ID      = 1984-013A
CENTER_NAME    = EARTH
REF_FRAME      = TEME
TIME_SYSTEM    = UTC
MEAN_ELEMENT_THEORY = SGP/SGP4

EPOCH          = 2025-12-03T16:05:24.262080
MEAN_MOTION    = 15.22360484
ECCENTRICITY   = .0013215
INCLINATION    = 82.5462
RA_OF_ASC_NODE = 203.1568
ARG_OF_PERICENTER = 261.3255
MEAN_ANOMALY   = 98.6485

EPHEMERIS_TYPE = 0
CLASSIFICATION_TYPE = U
NORAD_CAT_ID   = 14699
ELEMENT_SET_NO = 999
REV_AT_EPOCH   = 25800
BSTAR          = .31372E-3
MEAN_MOTION_DOT = .7286E-4
MEAN_MOTION_DDOT = 0

CCSDS_OMM_VERS = 2.0
CREATION_DATE  = 
ORIGINATOR     = 

OBJECT_NAME    = SL-14 R/B
OBJECT_ID      = 1984-027B
CENTER_NAME    = EARTH
REF_FRAME      = TEME
TIME_SYSTEM    = UTC
MEAN_ELEMENT_THEORY = SGP/SGP4

EPOCH          = 2025-12-03T11:08:34.588608
MEAN_MOTION    = 14.85858141
ECCENTRICITY   = .0016531
INCLINATION    = 82.5409
RA_OF_ASC_NODE = 335.2556
ARG_OF_PERICENTER = 294.4813
MEAN_ANOMALY   = 65.4679

EPHEMERIS_TYPE = 0
CLASSIFICATION_TYPE = U
NORAD_CAT_ID   = 14820
ELEMENT_SET_NO = 999
REV_AT_EPOCH   = 23334
BSTAR          = .92105E-4
MEAN_MOTION_DOT = .827E-5
MEAN_MOTION_DDOT = 0

CCSDS_OMM_VERS = 2.0
CREATION_DATE  = 
ORIGINATOR     = 

OBJECT_NAME    = SL-8 R/B
OBJECT_ID      = 1985-006B
CENTER_NAME    = EARTH
REF_FRAME      = TEME
TIME_SYSTEM    = UTC
MEAN_ELEMENT_THEORY = SGP/SGP4

EPOCH          = 2025-12-03T17:09:56.781792
MEAN_MOTION    = 14.37712468
ECCENTRICITY   = .0018293
INCLINATION    = 74.0465
RA_OF_ASC_NODE = 77.7377
ARG_OF_PERICENTER = 12.2652
MEAN_ANOMALY   = 98.7647

EPHEMERIS_TYPE = 0
CLASSIFICATION_TYPE = U
NORAD_CAT_ID   = 15483
ELEMENT_SET_NO = 999
REV_AT_EPOCH   = 14023
BSTAR          = .15321E-3
MEAN_MOTION_DOT = .435E-5
MEAN_MOTION_DDOT = 0

CCSDS_OMM_VERS = 2.0
CREATION_DATE  = 
ORIGINATOR     = 

OBJECT_NAME    = SL-12 R/B(2)
OBJECT_ID      = 1985-042D
CENTER_NAME    = EARTH
REF_FRAME      = TEME
TIME_SYSTEM    = UTC
MEAN_ELEMENT_THEORY = SGP/SGP4

EPOCH          = 2025-12-03T07:53:01.356288
MEAN_MOTION    = 14.21946988
ECCENTRICITY   = .0037683
INCLINATION    = 71.1081
RA_OF_ASC_NODE = 291.3020
ARG_OF_PERICENTER = 275.2419
MEAN_ANOMALY   = 192.5064

EPHEMERIS_TYPE = 0
CLASSIFICATION_TYPE = U
NORAD_CAT_ID   = 15772
ELEMENT_SET_NO = 999
REV_AT_EPOCH   = 10069
BSTAR          = .71626E-4
MEAN_MOTION_DOT = .111E-5
MEAN_MOTION_DDOT = 0

CCSDS_OMM_VERS = 2.0
CREATION_DATE  = 
ORIGINATOR     = 

OBJECT_NAME    = SL-14 R/B
OBJECT_ID      = 1985-069B
CENTER_NAME    = EARTH
REF_FRAME      = TEME
TIME_SYSTEM    = UTC
MEAN_ELEMENT_THEORY = SGP/SGP4

EPOCH          = 2025-12-03T19:33:31.210848
MEAN_MOTION    = 14.86306561
ECCENTRICITY   = .0019592
INCLINATION    = 82.5259
RA_OF_ASC_NODE = 115.0929
ARG_OF_PERICENTER = 146.4608
MEAN_ANOMALY   = 213.7853

EPHEMERIS_TYPE = 0
CLASSIFICATION_TYPE = U
NORAD_CAT_ID   = 15945
ELEMENT_SET_NO = 999
REV_AT_EPOCH   = 15859
BSTAR          = .10496E-3
MEAN_MOTION_DOT = .951E-5
MEAN_MOTION_DDOT = 0

CCSDS_OMM_VERS = 2.0
CREATION_DATE  = 
ORIGINATOR     = 

OBJECT_NAME    = SL-16 R/B
OBJECT_ID      = 1985-097B
CENTER_NAME    = EARTH
REF_FRAME      = TEME
TIME_SYSTEM    = UTC
MEAN_ELEMENT_THEORY = SGP/SGP4

EPOCH          = 2025-12-03T11:26:00.694752
MEAN_MOTION    = 14.16581776
ECCENTRICITY   = .0006102
INCLINATION    = 71.0032
RA_OF_ASC_NODE = 343.1060
ARG_OF_PERICENTER = 25.6046
MEAN_ANOMALY   = 126.6681

EPHEMERIS_TYPE = 0
CLASSIFICATION_TYPE = U
NORAD_CAT_ID   = 16182
ELEMENT_SET_NO = 999
REV_AT_EPOCH   = 7360
BSTAR          = -.54573E-4
MEAN_MOTION_DOT = -.157E-5
MEAN_MOTION_DDOT = 0

CCSDS_OMM_VERS = 2.0
CREATION_DATE  = 
ORIGINATOR     = 

OBJECT_NAME    = SL-14 R/B
OBJECT_ID      = 1986-006B
CENTER_NAME    = EARTH
REF_FRAME      = TEME
TIME_SYSTEM    = UTC
MEAN_ELEMENT_THEORY = SGP/SGP4

EPOCH          = 2025-12-03T13:06:30.689856
MEAN_MOTION    = 14.86651791
ECCENTRICITY   = .0075517
INCLINATION    = 82.5267
RA_OF_ASC_NODE = 350.2025
ARG_OF_PERICENTER = 230.6763
MEAN_ANOMALY   = 128.7744

EPHEMERIS_TYPE = 0
CLASSIFICATION_TYPE = U
NORAD_CAT_ID   = 16496
ELEMENT_SET_NO = 999
REV_AT_EPOCH   = 13492
BSTAR          = .10949E-3
MEAN_MOTION_DOT = .1049E-4
MEAN_MOTION_DDOT = 0

CCSDS_OMM_VERS = 2.0
CREATION_DATE  = 
ORIGINATOR     = 

OBJECT_NAME    = COSMOS 1743
OBJECT_ID      = 1986-034A
CENTER_NAME    = EARTH
REF_FRAME      = TEME
TIME_SYSTEM    = UTC
MEAN_ELEMENT_THEORY = SGP/SGP4

EPOCH          = 2025-12-03T15:02:25.005984
MEAN_MOTION    = 15.51430535
ECCENTRICITY   = .0004895
INCLINATION    = 82.5347
RA_OF_ASC_NODE = 174.0521
ARG_OF_PERICENTER = 293.6585
MEAN_ANOMALY   = 66.4153

EPHEMERIS_TYPE = 0
CLASSIFICATION_TYPE = U
NORAD_CAT_ID   = 16719
ELEMENT_SET_NO = 999
REV_AT_EPOCH   = 16532
BSTAR          = .60515E-3
MEAN_MOTION_DOT = .35814E-3
MEAN_MOTION_DDOT = 0

