SL-3 R/B                
1 13403U 82079B   25337.74862922  .00008579  00000+0  35564-3 0  9991
2 13403  81.1457 306.2583 0026772 127.7343 232.6322 15.23421485363082
SL-14 R/B               
1 13553U 82092B   25337.79583012  .00000813  00000+0  88809-4 0  9991
2 13553  82.5687 231.0755 0018843 258.9575 164.4617 14.86540752314686
SL-3 R/B                
1 13819U 83010B   25337.82444854  .00020203  00000+0  45341-3 0  9999
2 13819  81.1027 119.4977 0017584  21.9968 338.2026 15.43086591343142
SL-3 R/B                
1 14208U 83075B   25337.73193490  .00015277  00000+0  43665-3 0  9992
2 14208  97.6096 333.9153 0021735 208.3918 151.6142 15.35850124315418
COSMOS 1536             
1 14699U 84013A   25337.67041970  .00007286  00000+0  31372-3 0  9990
2 14699  82.5462 203.1568 0013215 261.3255  98.6485 15.22360484258009
SL-14 R/B               
1 14820U 84027B   25337.46428922  .00000827  00000+0  92105-4 0  9990
2 14820  82.5409 335.2556 0016531 294.4813  65.4679 14.85858141233348
SL-8 R/B                
1 15483U 85006B   25337.71524053  .00000435  00000+0  15321-3 0  9993
2 15483  74.0465  77.7377 0018293  12.2652  98.7647 14.37712468140232
SL-12 R/B(2)            
1 15772U 85042D   25337.32848792  .00000111  00000+0  71626-4 0  9992
2 15772  71.1081 291.3020 0037683 275.2419 192.5064 14.21946988100691
SL-14 R/B               
1 15945U 85069B   25337.81494457  .00000951  00000+0  10496-3 0  9991
2 15945  82.5259 115.0929 0019592 146.4608 213.7853 14.86306561158596
SL-16 R/B               
1 16182U 85097B   25337.47639693 -.00000157  00000+0 -54573-4 0  9996
2 16182  71.0032 343.1060 0006102  25.6046 126.6681 14.16581776 73604
SL-14 R/B               
1 16496U 86006B   25337.54618854  .00001049  00000+0  10949-3 0  9996
2 16496  82.5267 350.2025 0075517 230.6763 128.7744 14.86651791134927
COSMOS 1743             
1 16719U 86034A   25337.62667831  .00035814  00000+0  60515-3 0  9994
2 16719  82.5347 174.0521 0004895 293.6585  66.4153 15.51430535165323
